{
    "links": {
        "self": "http://www.neowsapp.com/rest/v1/neo/54049782?api_key=iIulBulltgU6a56xZRHN4H3l9WmuAYTsLGpBGhQ2"
    },
    "id": "54049782",
    "neo_reference_id": "54049782",
    "name": "(2020 OL4)",
    "designation": "2020 OL4",
    "nasa_jpl_url": "http://ssd.jpl.nasa.gov/sbdb.cgi?sstr=54049782",
    "absolute_magnitude_h": 24.792,
    "estimated_diameter": {
        "kilometers": {
            "estimated_diameter_min": 0.0292519604,
            "estimated_diameter_max": 0.0654093719
        },
        "meters": {
            "estimated_diameter_min": 29.2519603854,
            "estimated_diameter_max": 65.4093718968
        },
        "miles": {
            "estimated_diameter_min": 0.0181763199,
            "estimated_diameter_max": 0.0406434868
        },
        "feet": {
            "estimated_diameter_min": 95.9710017107,
            "estimated_diameter_max": 214.5976836939
        }
    },
    "is_potentially_hazardous_asteroid": false,
    "close_approach_data": [
        {
            "close_approach_date": "1965-09-27",
            "close_approach_date_full": "1965-Sep-27 00:52",
            "epoch_date_close_approach": -134521680000,
            "relative_velocity": {
                "kilometers_per_second": "9.2718185539",
                "kilometers_per_hour": "33378.546793992",
                "miles_per_hour": "20740.1309231891"
            },
            "miss_distance": {
                "astronomical": "0.0817092574",
                "lunar": "31.7849011286",
                "kilometers": "12223530.866321738",
                "miles": "7595349.8792784644"
            },
            "orbiting_body": "Mars"
        },
        {
            "close_approach_date": "2016-07-08",
            "close_approach_date_full": "2016-Jul-08 03:30",
            "epoch_date_close_approach": 1467948600000,
            "relative_velocity": {
                "kilometers_per_second": "9.7066327275",
                "kilometers_per_hour": "34943.8778189207",
                "miles_per_hour": "21712.7667480955"
            },
            "miss_distance": {
                "astronomical": "0.0843281359",
                "lunar": "32.8036448651",
                "kilometers": "12615309.511710533",
                "miles": "7838789.8410620354"
            },
            "orbiting_body": "Mars"
        },
        {
            "close_approach_date": "2020-08-08",
            "close_approach_date_full": "2020-Aug-08 19:28",
            "epoch_date_close_approach": 1596914880000,
            "relative_velocity": {
                "kilometers_per_second": "10.8362273329",
                "kilometers_per_hour": "39010.4183984861",
                "miles_per_hour": "24239.5569209926"
            },
            "miss_distance": {
                "astronomical": "0.0244130852",
                "lunar": "9.4966901428",
                "kilometers": "3652145.546048524",
                "miles": "2269338.0117126712"
            },
            "orbiting_body": "Earth"
        },
        {
            "close_approach_date": "2022-07-18",
            "close_approach_date_full": "2022-Jul-18 02:36",
            "epoch_date_close_approach": 1658111760000,
            "relative_velocity": {
                "kilometers_per_second": "20.2192453886",
                "kilometers_per_hour": "72789.2833991296",
                "miles_per_hour": "45228.4300098647"
            },
            "miss_distance": {
                "astronomical": "0.3495099167",
                "lunar": "135.9593575963",
                "kilometers": "52285939.082197429",
                "miles": "32488976.0118413602"
            },
            "orbiting_body": "Earth"
        }
    ],
    "orbital_data": {
        "orbit_id": "4",
        "orbit_determination_date": "2020-08-24 22:02:05",
        "first_observation_date": "2020-07-23",
        "last_observation_date": "2020-08-07",
        "data_arc_in_days": 15,
        "observations_used": 29,
        "orbit_uncertainty": "8",
        "minimum_orbit_intersection": ".00417987",
        "jupiter_tisserand_invariant": "4.313",
        "epoch_osculation": "2459056.5",
        "eccentricity": ".4316748116347489",
        "semi_major_axis": "1.562883808918234",
        "inclination": "5.535666531197865",
        "ascending_node_longitude": "316.8195943876489",
        "orbital_period": "713.6552497878388",
        "perihelion_distance": ".8882262350964565",
        "perihelion_argument": "56.41143520344772",
        "aphelion_distance": "2.237541382740011",
        "perihelion_time": "2459113.753037391680",
        "mean_anomaly": "331.1189773113387",
        "mean_motion": ".5044452487486412",
        "equinox": "J2000",
        "orbit_class": {
            "orbit_class_type": "APO",
            "orbit_class_description": "Near-Earth asteroid orbits which cross the Earth’s orbit similar to that of 1862 Apollo",
            "orbit_class_range": "a (semi-major axis) > 1.0 AU; q (perihelion) < 1.017 AU"
        }
    },
    "is_sentry_object": false
}